NORAD_CAT_ID,OBJECT_NAME,OBJECT_TYPE,EPOCH,MEAN_MOTION,ECCENTRICITY,INCLINATION,RA_OF_ASC_NODE,ARG_OF_PERICENTER,MEAN_ANOMALY,BSTAR,MEAN_MOTION_DOT,MEAN_MOTION_DDOT,TLE_LINE0,TLE_LINE1,TLE_LINE2,SEMIMAJOR_AXIS,PERIOD,APOGEE,PERIGEE,DECAYED
53285.0,STARLINK-4173,PAYLOAD,2022-09-09 14:00:01,15.73242652,0.0001978,53.2173,170.4815,24.2341,180.3075,-0.00051332,-0.00072184,0.0,0 STARLINK-4173,1 53285U 22086AV  22252.58334491 -.00072184  00000-0 -51332-3 0  9992,2 53285  53.2173 170.4815 0001978  24.2341 180.3075 15.73242652  1308,6727.774,91.531,350.969,348.30800000000005,0.0
53285.0,STARLINK-4173,PAYLOAD,2022-09-09 22:00:00,15.73180071,0.0002096,53.2171,168.8329,32.0435,261.4498,0.00019071,0.00026206,0.0,0 STARLINK-4173,1 53285U 22086AV  22252.91667824  .00026206  00000-0  19071-3 0  9994,2 53285  53.2171 168.8329 0002096  32.0435 261.4498 15.73180071  1306,6727.9519999999975,91.534,351.227,348.407,0.0
53285.0,STARLINK-4173,PAYLOAD,2022-09-10 04:00:00,15.73168901,0.0002318,53.2167,167.5933,29.9293,240.251,0.00077419,0.00109317,0.0,0 STARLINK-4173,1 53285U 22086AV  22253.16667824  .00109317  00000-0  77419-3 0  9997,2 53285  53.2167 167.5933 0002318  29.9293 240.2510 15.73168901  8127,6727.984,91.535,351.408,348.289,0.0
53285.0,STARLINK-4173,PAYLOAD,2022-09-10 12:00:00,15.73232223,0.0001989,53.2162,165.9461,28.9149,330.1767,-0.00037795,-0.00053406,0.0,0 STARLINK-4173,1 53285U 22086AV  22253.50001157 -.00053406  00000-0 -37795-3 0  9998,2 53285  53.2162 165.9461 0001989  28.9149 330.1767 15.73232223  8179,6727.803000000001,91.531,351.006,348.33,0.0
53285.0,STARLINK-4173,PAYLOAD,2022-09-10 14:00:01,15.73175411,0.0001956999999999,53.216,165.5334,27.6617,83.679,0.00034486,0.00048006,0.0,0 STARLINK-4173,1 53285U 22086AV  22253.58334491  .00048006  00000-0  34486-3 0  9998,2 53285  53.2160 165.5334 0001957  27.6617  83.6790 15.73175411  1302,6727.965,91.535,351.147,348.514,0.0
53285.0,STARLINK-4173,PAYLOAD,2022-09-10 22:00:00,15.73220488,0.0002147,53.216,163.8848,31.1043,169.1469,-0.00054409,-0.00076366,0.0,0 STARLINK-4173,1 53285U 22086AV  22253.91667824 -.00076366  00000-0 -54409-3 0  9993,2 53285  53.2160 163.8848 0002147  31.1043 169.1469 15.73220488  1306,6727.837,91.532,351.146,348.25699999999995,0.0
53285.0,STARLINK-4173,PAYLOAD,2022-09-11 06:00:00,15.73191734,0.0002245,53.2153,162.2363,28.7621,260.4357,0.00056101,0.00078833,0.0,0 STARLINK-4173,1 53285U 22086AV  22254.25001157  .00078833  00000-0  56101-3 0  9992,2 53285  53.2153 162.2363 0002245  28.7621 260.4357 15.73191734  8293,6727.919,91.534,351.2940000000001,348.273,0.0
53285.0,STARLINK-4173,PAYLOAD,2022-09-11 14:00:01,15.73199312,0.0001892,53.2153,160.5848,32.2559,345.9081,0.00034728,0.00048399,0.0,0 STARLINK-4173,1 53285U 22086AV  22254.58334491  .00048399  00000-0  34728-3 0  9993,2 53285  53.2153 160.5848 0001892  32.2559 345.9081 15.73199312  1307,6727.897,91.533,351.035,348.48900000000015,0.0
53285.0,STARLINK-4173,PAYLOAD,2022-09-11 22:00:00,15.73235811,0.0001978,53.2153,158.9362,32.0402,75.0725,-0.00020632,-0.00029522,0.0,0 STARLINK-4173,1 53285U 22086AV  22254.91667824 -.00029522  00000-0 -20632-3 0  9997,2 53285  53.2153 158.9362 0001978  32.0402  75.0725 15.73235811  1300,6727.793000000002,91.531,350.98900000000015,348.327,0.0
53285.0,STARLINK-4173,PAYLOAD,2022-09-12 06:00:00,15.73193369,0.0002095,53.2151,157.2879,28.3916,167.6185,-0.00022753,-0.00032424,0.0,0 STARLINK-4173,1 53285U 22086AV  22255.25001157 -.00032424  00000-0 -22753-3 0  9997,2 53285  53.2151 157.2879 0002095  28.3916 167.6185 15.73193369  8454,6727.9140000000025,91.534,351.189,348.37,0.0
53285.0,STARLINK-4173,PAYLOAD,2022-09-12 14:00:01,15.73105735,0.0001935,53.2155,155.6363,33.4238,251.5095,0.00074388,0.00104667,0.0,0 STARLINK-4173,1 53285U 22086AV  22255.58334491  .00104667  00000-0  74388-3 0  9991,2 53285  53.2155 155.6363 0001935  33.4238 251.5095 15.73105735  1304,6728.1640000000025,91.539,351.331,348.727,0.0
53285.0,STARLINK-4173,PAYLOAD,2022-09-12 22:00:00,15.73192594,0.0002056,53.2154,153.9881,33.4276,340.3540000000001,0.00018087,0.00024831,0.0,0 STARLINK-4173,1 53285U 22086AV  22255.91667824  .00024831  00000-0  18087-3 0  9995,2 53285  53.2154 153.9881 0002056  33.4276 340.3540 15.73192594  8562,6727.916,91.534,351.165,348.398,0.0
53285.0,STARLINK-4173,PAYLOAD,2022-09-13 14:00:01,15.73197747,0.0001783,53.2146,150.6866,32.5583,159.1204,-1.786e-05,-3.126e-05,0.0,0 STARLINK-4173,1 53285U 22086AV  22256.58334491 -.00003126  00000-0 -17860-4 0  9995,2 53285  53.2146 150.6866 0001783  32.5583 159.1204 15.73197747  1300,6727.901999999999,91.533,350.966,348.56699999999995,0.0
53285.0,STARLINK-4173,PAYLOAD,2022-09-13 16:00:00,15.73189902,0.000178,53.2149,150.2696,36.2005,267.7144,0.00011536,0.00015593,0.0,0 STARLINK-4173,1 53285U 22086AV  22256.66667824  .00015593  00000-0  11536-3 0  9995,2 53285  53.2149 150.2696 0001780  36.2005 267.7144 15.73189902  8677,6727.924,91.534,350.987,348.591,0.0
53285.0,STARLINK-4173,PAYLOAD,2022-09-13 22:00:00,15.73224159,0.0001879,53.2157,149.0282,36.7158,243.8893,-0.00063396,-0.00088758,0.0,0 STARLINK-4173,1 53285U 22086AV  22256.91667824 -.00088758  00000-0 -63396-3 0  9999,2 53285  53.2157 149.0282 0001879  36.7158 243.8893 15.73224159  1309,6727.826,91.532,350.955,348.427,0.0
53285.0,STARLINK-4173,PAYLOAD,2022-09-14 06:00:00,15.73184197,0.0001971,53.2146,147.3904,28.0845,341.4538,-0.00022039,-0.00031417,0.0,0 STARLINK-4173,1 53285U 22086AV  22257.25001157 -.00031417  00000-0 -22039-3 0  9997,2 53285  53.2146 147.3904 0001971  28.0845 341.4538 15.73184197  8764,6727.94,91.534,351.131,348.47900000000016,0.0
53285.0,STARLINK-4173,PAYLOAD,2022-09-14 14:00:01,15.73128262,0.000181,53.2149,145.739,36.615,61.8199,0.00074502,0.00104932,0.0,0 STARLINK-4173,1 53285U 22086AV  22257.58334491  .00104932  00000-0  74502-3 0  9996,2 53285  53.2149 145.7390 0001810  36.6150  61.8199 15.73128262  1304,6728.1,91.537,351.182,348.747,0.0
53285.0,STARLINK-4173,PAYLOAD,2022-09-14 20:00:01,15.73202664,0.0001909999999999,53.2151,144.5029,36.2071,38.8796,0.00018619,0.00025593,0.0,0 STARLINK-4173,1 53285U 22086AV  22257.83334491  .00025593  00000-0  18619-3 0  9996,2 53285  53.2151 144.5029 0001910  36.2071  38.8796 15.73202664  8866,6727.888000000001,91.533,351.038,348.468,0.0
53285.0,STARLINK-4173,PAYLOAD,2022-09-14 22:00:00,15.73272303,0.0001738,53.2168,144.0737,41.9646,145.361,-0.00059408,-0.00083435,0.0,0 STARLINK-4173,1 53285U 22086AV  22257.91667824 -.00083435  00000-0 -59408-3 0  9996,2 53285  53.2168 144.0737 0001738  41.9646 145.3610 15.73272303  1302,6727.689,91.529,350.723,348.385,0.0
53285.0,STARLINK-4173,PAYLOAD,2022-09-15 06:00:00,15.73295705,0.0001924,53.2143,142.4415,29.1935,247.0791,-0.00030404,-0.0004325,0.0,0 STARLINK-4173,1 53285U 22086AV  22258.25001157 -.00043250  00000-0 -30404-3 0  9991,2 53285  53.2143 142.4415 0001924  29.1935 247.0791 15.73295705  8922,6727.621999999999,91.528,350.782,348.1930000000001,0.0
53285.0,STARLINK-4173,PAYLOAD,2022-09-15 14:00:01,15.73236627,0.0001665,53.2144,140.79,31.9702,333.3273,0.00020752,0.00028649,0.0,0 STARLINK-4173,1 53285U 22086AV  22258.58334491  .00028649  00000-0  20752-3 0  9995,2 53285  53.2144 140.7900 0001665  31.9702 333.3273 15.73236627  1305,6727.791,91.531,350.776,348.536,0.0
53285.0,STARLINK-4173,PAYLOAD,2022-09-15 22:00:00,15.73252387,0.0001803,53.2145,139.1422,29.2952,64.9926,-0.00055857,-0.00078465,0.0,0 STARLINK-4173,1 53285U 22086AV  22258.91667824 -.00078465  00000-0 -55857-3 0  9998,2 53285  53.2145 139.1422 0001803  29.2952  64.9926 15.73252387  1301,6727.746,91.53,350.824,348.398,0.0
53285.0,STARLINK-4173,PAYLOAD,2022-09-16 00:00:00,15.73198174,0.0001898,53.2147,138.7302,29.2349,177.2848,-0.00017099,-0.00024548,0.0,0 STARLINK-4173,1 53285U 22086AV  22259.00001157 -.00024548  00000-0 -17099-3 0  9999,2 53285  53.2147 138.7302 0001898  29.2349 177.2848 15.73198174  9042,6727.9,91.533,351.042,348.48800000000006,0.0
53285.0,STARLINK-4173,PAYLOAD,2022-09-16 14:00:01,15.73114148,0.0001654,53.2149,135.8411,31.027,241.0927,0.0002322,0.00031973,0.0,0 STARLINK-4173,1 53285U 22086AV  22259.58334491  .00031973  00000-0  23220-3 0  9993,2 53285  53.2149 135.8411 0001654  31.0270 241.0927 15.73114148  1305,6728.14,91.538,351.11800000000005,348.892,0.0
53285.0,STARLINK-4173,PAYLOAD,2022-09-16 16:00:00,15.73110802,0.0001624,53.2152,135.429,31.3823,352.9426,0.00032959,0.00045712,0.0,0 STARLINK-4173,1 53285U 22086AV  22259.66667824  .00045712  00000-0  32959-3 0  9996,2 53285  53.2152 135.4290 0001624  31.3823 352.9426 15.73110802  9154,6728.149,91.538,351.107,348.922,0.0
53285.0,STARLINK-4173,PAYLOAD,2022-09-16 22:00:00,15.73134527,0.0001829,53.2151,134.1937,27.2429,333.7081,0.00022148,0.0003049,0.0,0 STARLINK-4173,1 53285U 22086AV  22259.91667824  .00030490  00000-0  22148-3 0  9990,2 53285  53.2151 134.1937 0001829  27.2429 333.7081 15.73134527  1314,6728.081999999999,91.537,351.177,348.716,0.0
53285.0,STARLINK-4173,PAYLOAD,2022-09-17 14:00:01,15.73184047,0.000156,53.2148,130.8931,29.8728,148.8392,0.00065744,0.00092608,0.0,0 STARLINK-4173,1 53285U 22086AV  22260.58334491  .00092608  00000-0  65744-3 0  9994,2 53285  53.2148 130.8931 0001560  29.8728 148.8392 15.73184047  1300,6727.941,91.534,350.855,348.756,0.0
53285.0,STARLINK-4173,PAYLOAD,2022-09-17 22:00:00,15.732433,0.0001826,53.2151,129.2453,27.3097,240.3516,0.00029601,0.00041205,0.0,0 STARLINK-4173,1 53285U 22086AV  22260.91667824  .00041205  00000-0  29601-3 0  9999,2 53285  53.2151 129.2453 0001826  27.3097 240.3516 15.73243300  1306,6727.772,91.531,350.865,348.408,0.0
53285.0,STARLINK-4173,PAYLOAD,2022-09-18 06:00:00,15.73296357,0.0001854,53.2151,127.5956,28.4323,328.1886,-0.00062485,-0.00087771,0.0,0 STARLINK-4173,1 53285U 22086AV  22261.25001157 -.00087771  00000-0 -62485-3 0  9995,2 53285  53.2151 127.5956 0001854  28.4323 328.1886 15.73296357  9392,6727.62,91.528,350.733,348.23800000000006,0.0
